0 OPTUS B1 R/B(STAR 63F)
1 22089U 92054C   13281.42756476  .00000264  00000-0  79229-3 0   598
2 22089 023.0074 085.7505 7280196 290.4998 009.5053 02.21637433169585
0 OPTUS B1 R/B(STAR 63F)
1 22089U 92054C   13285.49240970  .00000209  00000-0  82493-3 0   604
2 22089 023.0159 084.2532 7280501 293.1017 012.8324 02.21641887169671
0 OPTUS B1 R/B(STAR 63F)
1 22089U 92054C   13289.55891440  .00000352  00000-0  10967-2 0   615
2 22089 023.0237 082.7551 7280580 295.7036 017.5382 02.21646595169765
0 OPTUS B1 R/B(STAR 63F)
1 22089U 92054C   13291.35386860  .00000326  00000-0  97516-3 0   629
2 22089 023.0275 082.0947 7280671 296.8516 009.7709 02.21648620169807
0 OPTUS B1 R/B(STAR 63F)
1 22089U 92054C   13293.62818060  .00000325  00000-0  93677-3 0   637
2 22089 023.0333 081.2541 7280640 298.3090 024.5148 02.21651377169853
